[{"OBJECT_NAME":"GAOFEN-9 01","OBJECT_ID":"2015-047A","EPOCH":"2026-04-04T07:20:43.910592","MEAN_MOTION":14.82751106,"ECCENTRICITY":0.00279649,"INCLINATION":97.636,"RA_OF_ASC_NODE":133.3327,"ARG_OF_PERICENTER":25.6627,"MEAN_ANOMALY":334.5968,"EPHEMERIS_TYPE":0,"CLASSIFICATION_TYPE":"U","NORAD_CAT_ID":40894,"ELEMENT_SET_NO":999,"REV_AT_EPOCH":56924,"BSTAR":0.00026307527,"MEAN_MOTION_DOT":2.088e-5,"MEAN_MOTION_DDOT":0},{"OBJECT_NAME":"YAOGAN-28","OBJECT_ID":"2015-064A","EPOCH":"2026-04-04T06:29:58.055712","MEAN_MOTION":15.26472929,"ECCENTRICITY":0.00123053,"INCLINATION":97.2956,"RA_OF_ASC_NODE":234.1407,"ARG_OF_PERICENTER":93.4548,"MEAN_ANOMALY":266.8099,"EPHEMERIS_TYPE":0,"CLASSIFICATION_TYPE":"U","NORAD_CAT_ID":41026,"ELEMENT_SET_NO":999,"REV_AT_EPOCH":57940,"BSTAR":0.00052601289,"MEAN_MOTION_DOT":0.00013688,"MEAN_MOTION_DDOT":0},{"OBJECT_NAME":"YAOGAN-29","OBJECT_ID":"2015-069A","EPOCH":"2026-04-04T07:10:08.574240","MEAN_MOTION":14.83026192,"ECCENTRICITY":7.96e-6,"INCLINATION":98.0101,"RA_OF_ASC_NODE":122.7928,"ARG_OF_PERICENTER":182.4683,"MEAN_ANOMALY":177.653,"EPHEMERIS_TYPE":0,"CLASSIFICATION_TYPE":"U","NORAD_CAT_ID":41038,"ELEMENT_SET_NO":999,"REV_AT_EPOCH":55967,"BSTAR":0.00016338106,"MEAN_MOTION_DOT":1.274e-5,"MEAN_MOTION_DDOT":0},{"OBJECT_NAME":"KENT RIDGE 1","OBJECT_ID":"2015-077B","EPOCH":"2026-04-04T05:15:04.605984","MEAN_MOTION":15.22676706,"ECCENTRICITY":0.00084701,"INCLINATION":14.9795,"RA_OF_ASC_NODE":95.8855,"ARG_OF_PERICENTER":275.2993,"MEAN_ANOMALY":84.6363,"EPHEMERIS_TYPE":0,"CLASSIFICATION_TYPE":"U","NORAD_CAT_ID":41167,"ELEMENT_SET_NO":999,"REV_AT_EPOCH":56980,"BSTAR":0.00028137916,"MEAN_MOTION_DOT":7.531e-5,"MEAN_MOTION_DDOT":0},{"OBJECT_NAME":"GAOFEN-4","OBJECT_ID":"2015-083A","EPOCH":"2026-04-04T01:18:37.958400","MEAN_MOTION":1.00271511,"ECCENTRICITY":0.00061496,"INCLINATION":0.3912,"RA_OF_ASC_NODE":82.9433,"ARG_OF_PERICENTER":86.3563,"MEAN_ANOMALY":148.4282,"EPHEMERIS_TYPE":0,"CLASSIFICATION_TYPE":"U","NORAD_CAT_ID":41194,"ELEMENT_SET_NO":999,"REV_AT_EPOCH":3778,"BSTAR":0,"MEAN_MOTION_DOT":-3.35e-6,"MEAN_MOTION_DDOT":0},{"OBJECT_NAME":"JASON-3","OBJECT_ID":"2016-002A","EPOCH":"2026-04-04T05:11:22.461216","MEAN_MOTION":12.87627841,"ECCENTRICITY":0.00076552,"INCLINATION":66.04,"RA_OF_ASC_NODE":281.3528,"ARG_OF_PERICENTER":276.2153,"MEAN_ANOMALY":83.7993,"EPHEMERIS_TYPE":0,"CLASSIFICATION_TYPE":"U","NORAD_CAT_ID":41240,"ELEMENT_SET_NO":999,"REV_AT_EPOCH":47772,"BSTAR":6.6766497e-5,"MEAN_MOTION_DOT":-4.5e-7,"MEAN_MOTION_DDOT":0},{"OBJECT_NAME":"SENTINEL-3A","OBJECT_ID":"2016-011A","EPOCH":"2026-04-04T03:49:31.335744","MEAN_MOTION":14.26736403,"ECCENTRICITY":0.0001147,"INCLINATION":98.6298,"RA_OF_ASC_NODE":162.589,"ARG_OF_PERICENTER":93.3543,"MEAN_ANOMALY":266.7768,"EPHEMERIS_TYPE":0,"CLASSIFICATION_TYPE":"U","NORAD_CAT_ID":41335,"ELEMENT_SET_NO":999,"REV_AT_EPOCH":52750,"BSTAR":0.00011025834,"MEAN_MOTION_DOT":2.23e-6,"MEAN_MOTION_DDOT":0},{"OBJECT_NAME":"ZIYUAN 3-02 (ZY 3-02)","OBJECT_ID":"2016-033A","EPOCH":"2026-04-04T06:15:37.681056","MEAN_MOTION":15.21344237,"ECCENTRICITY":0.00135039,"INCLINATION":97.3862,"RA_OF_ASC_NODE":171.4411,"ARG_OF_PERICENTER":189.4417,"MEAN_ANOMALY":170.6567,"EPHEMERIS_TYPE":0,"CLASSIFICATION_TYPE":"U","NORAD_CAT_ID":41556,"ELEMENT_SET_NO":999,"REV_AT_EPOCH":54674,"BSTAR":0.00050118274,"MEAN_MOTION_DOT":0.00011191,"MEAN_MOTION_DDOT":0},{"OBJECT_NAME":"CARTOSAT-2C","OBJECT_ID":"2016-040A","EPOCH":"2026-04-04T05:26:47.910624","MEAN_MOTION":15.19202707,"ECCENTRICITY":0.00099834,"INCLINATION":97.4557,"RA_OF_ASC_NODE":155.1922,"ARG_OF_PERICENTER":37.9911,"MEAN_ANOMALY":322.2026,"EPHEMERIS_TYPE":0,"CLASSIFICATION_TYPE":"U","NORAD_CAT_ID":41599,"ELEMENT_SET_NO":999,"REV_AT_EPOCH":54248,"BSTAR":0.00016041415,"MEAN_MOTION_DOT":3.311e-5,"MEAN_MOTION_DDOT":0},{"OBJECT_NAME":"SKYSAT-C1","OBJECT_ID":"2016-040C","EPOCH":"2026-04-04T01:30:59.481216","MEAN_MOTION":15.35071566,"ECCENTRICITY":7.318e-5,"INCLINATION":96.9647,"RA_OF_ASC_NODE":129.8355,"ARG_OF_PERICENTER":338.165,"MEAN_ANOMALY":21.9563,"EPHEMERIS_TYPE":0,"CLASSIFICATION_TYPE":"U","NORAD_CAT_ID":41601,"ELEMENT_SET_NO":999,"REV_AT_EPOCH":54649,"BSTAR":0.000497626,"MEAN_MOTION_DOT":0.00016878,"MEAN_MOTION_DDOT":0},{"OBJECT_NAME":"LAPAN-A3","OBJECT_ID":"2016-040E","EPOCH":"2026-04-04T07:03:46.114272","MEAN_MOTION":15.32615953,"ECCENTRICITY":0.00083807,"INCLINATION":97.149,"RA_OF_ASC_NODE":92.8988,"ARG_OF_PERICENTER":283.1089,"MEAN_ANOMALY":76.9218,"EPHEMERIS_TYPE":0,"CLASSIFICATION_TYPE":"U","NORAD_CAT_ID":41603,"ELEMENT_SET_NO":999,"REV_AT_EPOCH":54349,"BSTAR":0.000193349,"MEAN_MOTION_DOT":6.02e-5,"MEAN_MOTION_DDOT":0},{"OBJECT_NAME":"GAOFEN-3","OBJECT_ID":"2016-049A","EPOCH":"2026-04-04T06:22:54.522048","MEAN_MOTION":14.42223719,"ECCENTRICITY":0.00016222,"INCLINATION":98.404,"RA_OF_ASC_NODE":103.1596,"ARG_OF_PERICENTER":71.2332,"MEAN_ANOMALY":288.9034,"EPHEMERIS_TYPE":0,"CLASSIFICATION_TYPE":"U","NORAD_CAT_ID":41727,"ELEMENT_SET_NO":999,"REV_AT_EPOCH":50799,"BSTAR":0.00012592397,"MEAN_MOTION_DOT":3.71e-6,"MEAN_MOTION_DDOT":0},{"OBJECT_NAME":"SKYSAT-C4","OBJECT_ID":"2016-058B","EPOCH":"2026-04-04T00:44:20.619744","MEAN_MOTION":15.46338277,"ECCENTRICITY":0.00029102,"INCLINATION":96.9245,"RA_OF_ASC_NODE":119.0032,"ARG_OF_PERICENTER":124.9615,"MEAN_ANOMALY":235.1909,"EPHEMERIS_TYPE":0,"CLASSIFICATION_TYPE":"U","NORAD_CAT_ID":41771,"ELEMENT_SET_NO":999,"REV_AT_EPOCH":53400,"BSTAR":0.00060946144,"MEAN_MOTION_DOT":0.00030068,"MEAN_MOTION_DDOT":0},{"OBJECT_NAME":"SKYSAT-C5","OBJECT_ID":"2016-058C","EPOCH":"2026-04-04T01:37:40.994112","MEAN_MOTION":15.34222719,"ECCENTRICITY":0.00021293,"INCLINATION":97.0556,"RA_OF_ASC_NODE":138.0264,"ARG_OF_PERICENTER":174.0544,"MEAN_ANOMALY":186.0726,"EPHEMERIS_TYPE":0,"CLASSIFICATION_TYPE":"U","NORAD_CAT_ID":41772,"ELEMENT_SET_NO":999,"REV_AT_EPOCH":53238,"BSTAR":0.00047906817,"MEAN_MOTION_DOT":0.00015811,"MEAN_MOTION_DDOT":0},{"OBJECT_NAME":"SKYSAT-C2","OBJECT_ID":"2016-058D","EPOCH":"2026-04-04T01:10:21.332928","MEAN_MOTION":15.40431751,"ECCENTRICITY":0.00021769,"INCLINATION":97.0236,"RA_OF_ASC_NODE":118.9983,"ARG_OF_PERICENTER":358.9881,"MEAN_ANOMALY":1.1362,"EPHEMERIS_TYPE":0,"CLASSIFICATION_TYPE":"U","NORAD_CAT_ID":41773,"ELEMENT_SET_NO":999,"REV_AT_EPOCH":53363,"BSTAR":0.00053234279,"MEAN_MOTION_DOT":0.00021498,"MEAN_MOTION_DDOT":0},{"OBJECT_NAME":"SKYSAT-C3","OBJECT_ID":"2016-058E","EPOCH":"2026-04-04T01:50:52.741248","MEAN_MOTION":15.49554942,"ECCENTRICITY":0.00024384,"INCLINATION":96.9122,"RA_OF_ASC_NODE":127.8858,"ARG_OF_PERICENTER":110.6525,"MEAN_ANOMALY":249.4989,"EPHEMERIS_TYPE":0,"CLASSIFICATION_TYPE":"U","NORAD_CAT_ID":41774,"ELEMENT_SET_NO":999,"REV_AT_EPOCH":53462,"BSTAR":0.00067845641,"MEAN_MOTION_DOT":0.00037468,"MEAN_MOTION_DDOT":0},{"OBJECT_NAME":"ALSAT-1B","OBJECT_ID":"2016-059C","EPOCH":"2026-04-04T05:26:26.001312","MEAN_MOTION":14.72217451,"ECCENTRICITY":0.00107494,"INCLINATION":97.7785,"RA_OF_ASC_NODE":106.176,"ARG_OF_PERICENTER":101.7866,"MEAN_ANOMALY":258.4549,"EPHEMERIS_TYPE":0,"CLASSIFICATION_TYPE":"U","NORAD_CAT_ID":41785,"ELEMENT_SET_NO":999,"REV_AT_EPOCH":50969,"BSTAR":0.00013971576,"MEAN_MOTION_DOT":8.35e-6,"MEAN_MOTION_DDOT":0}]
