GAOFEN-9 01             
1 40894U 15047A   26094.30606378  .00002088  00000+0  26308-3 0  9995
2 40894  97.6360 133.3327 0027964  25.6627 334.5968 14.82751106569245
YAOGAN-28               
1 41026U 15064A   26094.27081083  .00013688  00000+0  52601-3 0  9991
2 41026  97.2956 234.1407 0012305  93.4548 266.8099 15.26472929579400
YAOGAN-29               
1 41038U 15069A   26094.29871035  .00001274  00000+0  16338-3 0  9990
2 41038  98.0101 122.7928 0000079 182.4683 177.6530 14.83026192559673
KENT RIDGE 1            
1 41167U 15077B   26094.21880331  .00007531  00000+0  28138-3 0  9996
2 41167  14.9795  95.8855 0008470 275.2993  84.6363 15.22676706569802
GAOFEN-4                
1 41194U 15083A   26094.05460600 -.00000335  00000+0  00000+0 0  9998
2 41194   0.3912  82.9433 0006149  86.3563 148.4282  1.00271511 37788
JASON-3                 
1 41240U 16002A   26094.21623219 -.00000045  00000+0  66766-4 0  9991
2 41240  66.0400 281.3528 0007655 276.2153  83.7993 12.87627841477729
SENTINEL-3A             
1 41335U 16011A   26094.15939046  .00000223  00000+0  11026-3 0  9992
2 41335  98.6298 162.5890 0001147  93.3543 266.7768 14.26736403527508
ZIYUAN 3-02 (ZY 3-02)   
1 41556U 16033A   26094.26085279  .00011191  00000+0  50118-3 0  9994
2 41556  97.3862 171.4411 0013503 189.4417 170.6567 15.21344237546743
CARTOSAT-2C             
1 41599U 16040A   26094.22694341  .00003311  00000+0  16041-3 0  9993
2 41599  97.4557 155.1922 0009983  37.9911 322.2026 15.19202707542485
SKYSAT-C1               
1 41601U 16040C   26094.06318844  .00016878  00000+0  49763-3 0  9999
2 41601  96.9647 129.8355 0000731 338.1650  21.9563 15.35071566546498
LAPAN-A3                
1 41603U 16040E   26094.29428373  .00006020  00000+0  19335-3 0  9995
2 41603  97.1490  92.8988 0008380 283.1089  76.9218 15.32615953543498
GAOFEN-3                
1 41727U 16049A   26094.26590882  .00000371  00000+0  12592-3 0  9994
2 41727  98.4040 103.1596 0001622  71.2332 288.9034 14.42223719507991
SKYSAT-C4               
1 41771U 16058B   26094.03079421  .00030068  00000+0  60946-3 0  9991
2 41771  96.9245 119.0032 0002910 124.9615 235.1909 15.46338277534000
SKYSAT-C5               
1 41772U 16058C   26094.06783558  .00015811  00000+0  47907-3 0  9999
2 41772  97.0556 138.0264 0002129 174.0544 186.0726 15.34222719532385
SKYSAT-C2               
1 41773U 16058D   26094.04885802  .00021498  00000+0  53234-3 0  9991
2 41773  97.0236 118.9983 0002176 358.9881   1.1362 15.40431751533632
SKYSAT-C3               
1 41774U 16058E   26094.07699932  .00037468  00000+0  67846-3 0  9990
2 41774  96.9122 127.8858 0002438 110.6525 249.4989 15.49554942534623
ALSAT-1B                
1 41785U 16059C   26094.22668983  .00000835  00000+0  13972-3 0  9991
2 41785  97.7785 106.1760 0010749 101.7866 258.4549 14.72217451509691
